COSMOS 1953             
1 19210U 88050A   26061.75150916  .00010680  00000+0  38458-3 0  9998
2 19210  82.5116 165.2225 0012171 145.0303 215.1738 15.28371852 36726
SL-8 R/B                
1 19257U 88053B   26061.65410887  .00000304  00000+0  10705-3 0  9994
2 19257  74.0469 125.4351 0021257 305.7809 216.9762 14.38910760975582
COSMOS 1975             
1 19573U 88093A   26061.65223789  .00009226  00000+0  33661-3 0  9990
2 19573  82.5201 124.7490 0011484 187.6591 172.4475 15.27939863 18335
SL-14 R/B               
1 19574U 88093B   26061.91976931  .00000691  00000+0  76635-4 0  9990
2 19574  82.5292  48.3996 0022149  62.6477 319.6679 14.85646384    16
SL-16 R/B               
1 19650U 88102B   26061.70015643 -.00000094  00000+0 -23193-4 0  9997
2 19650  71.0000 166.2026 0013519  12.2660 347.8790 14.16149362925900
INTERCOSMOS 24          
1 20261U 89080A   26061.57452880  .00000780  00000+0  23149-3 0  9996
2 20261  82.6033 109.0376 1186853 309.3514  40.8085 12.59544974665909
SL-14 R/B               
1 20262U 89080C   26061.83414970  .00000721  00000+0  21457-3 0  9999
2 20262  82.5971 177.5858 1230305 200.4157 154.3371 12.50483069659293
DELTA 1 R/B             
1 20323U 89089B   26061.58525407  .00000451  00000+0  11989-3 0  9995
2 20323  97.0711 270.1538 0070022 144.0950 216.4983 14.50656335894706
ARIANE 40 R/B           
1 20443U 90005H   26061.72542535  .00000321  00000+0  11570-3 0  9997
2 20443  98.3099 122.5940 0009427 220.2494 139.7998 14.39864935891805
DELTA 2 R/B(1)          
1 20453U 90008B   26061.44271042  .00074557  00000+0  90521-3 0  9997
2 20453  35.6028 222.3764 0086982 191.5547 168.3190 15.54850817925009
COSMOS 2058             
1 20465U 90010A   26061.96086854  .00004858  00000+0  28704-3 0  9996
2 20465  82.4665  54.0570 0009871   5.6195 354.5144 15.11247125941225
SL-14 R/B               
1 20466U 90010B   26061.94222799  .00000471  00000+0  54211-4 0  9995
2 20466  82.4992 273.7285 0018965 325.8784  34.1210 14.83561864927481
SL-14 R/B               
1 20511U 90018B   26061.95357582  .00000627  00000+0  75662-4 0  9990
2 20511  82.5191 229.3863 0017570 112.4856 247.8221 14.82135873921580
HST                     
1 20580U 90037B   26061.37345004  .00009122  00000+0  30343-3 0  9994
2 20580  28.4700  89.9045 0001638  52.0942 307.9801 15.29345912772198
SL-16 R/B               
1 20625U 90046B   26061.91078194 -.00000169  00000+0 -62600-4 0  9993
2 20625  71.0004 312.1516 0016117 308.7258  51.2423 14.15014759847437
COSMOS 2084             
1 20663U 90055A   26061.94757851  .00003382  00000+0  24648-3 0  9999
2 20663  62.7925 358.5709 0018157 188.5153 171.5643 15.05599794935301
SL-6 R/B(2)             
1 20666U 90055D   26061.92101902  .00002342  00000+0  18425-3 0  9991
2 20666  62.7820 276.8694 0023706 345.3552  14.6858 15.03555592937173
